GORIZONT 1 [-]          
1 11158U 78118A   22053.90745918  .00000006  00000+0  00000+0 0  9990
2 11158  11.1590 210.1919 3509795 274.7064  46.6766  1.00271942107140
GORIZONT 2 [-]          
1 11440U 79062A   22053.77555014 -.00000043  00000+0  00000+0 0  9996
2 11440   9.5511 303.1964 0002293 340.5159 219.5912  1.00237688122225
GORIZONT 3 [-]          
1 11648U 79105A   22053.84122253  .00000148  00000+0  00000+0 0  9992
2 11648   9.7054 304.5937 0011674 205.2826 346.4127  1.00252873106688
GORIZONT 4 [-]          
1 11841U 80049A   22054.17655653 -.00000056  00000+0  00000+0 0  9997
2 11841  10.8435 310.1863 0002063  28.9956 160.5255  0.98628490217987
GORIZONT 5 [-]          
1 13092U 82020A   22053.84192028 -.00000009  00000+0  00000+0 0  9991
2 13092  11.8142 315.4037 0032496 207.1972 337.9896  0.98531120106077
GORIZONT 6 [-]          
1 13624U 82103A   22054.48556234  .00000130  00000+0  00000+0 0  9992
2 13624  10.7249 315.4005 0001064 118.3644 101.2559  1.00205304105157
GORIZONT 7 [-]          
1 14160U 83066A   22053.64249201 -.00000154  00000+0  00000+0 0  9994
2 14160  12.3469 324.5482 0009983 324.8867 218.7429  0.98348560139250
GORIZONT 8 [-]          
1 14532U 83118A   22053.84479848 -.00000003  00000+0  00000+0 0  9992
2 14532  12.5091 326.3630 0029305 142.5106  46.8513  0.98268463105027
GORIZONT 9 [-]          
1 14940U 84041A   22053.70847934 -.00000277  00000+0  00000+0 0  9994
2 14940  11.7067 324.4647 0003180 207.5131 330.4996  1.00293361106144
GORIZONT 10 [-]         
1 15144U 84078A   22054.46213020 -.00000172  00000+0  00000+0 0  9992
2 15144  11.7923 325.4678 0001735  53.4794 210.0688  1.00168841138784
GORIZONT 11 [-]         
1 15484U 85007A   22054.24509042  .00000107  00000+0  00000+0 0  9997
2 15484  11.9608 327.4240 0002952 110.6443 181.7292  1.00334031136834
GORIZONT 12 [-]         
1 16769U 86044A   22053.71100868 -.00000346  00000+0  00000+0 0  9996
2 16769  12.5462 332.7350 0000924   3.1334 180.2723  1.00248418131469
GORIZONT 13 [-]         
1 17083U 86090A   22054.59004347 -.00000167  00000+0  00000+0 0  9990
2 17083  14.3769 339.7760 0015170 342.1274 196.5178  0.96727237103412
GORIZONT 14 [-]         
1 17969U 87040A   22054.04537896 -.00000166  00000+0  00000+0 0  9998
2 17969  13.3856 331.2957 0029665 167.2712  15.7782  0.97660100104479
GORIZONT 15 [-]         
1 19017U 88028A   22054.04930378 -.00000164  00000+0  00000+0 0  9991
2 19017  14.6396 342.6655 0035666 148.8238  44.1821  0.97828922104091
GORIZONT 16 [-]         
1 19397U 88071A   22053.71345079 -.00000359  00000+0  00000+0 0  9997
2 19397  13.4960 341.3654 0015930  52.0187 136.0899  0.99977471122487
GORIZONT 17 [-]         
1 19765U 89004A   22054.45495719  .00000052  00000+0  00000+0 0  9991
2 19765  14.0162 344.6628 0022376 122.2564  82.6739  0.99064515119970
GORIZONT 18 [-]         
1 20107U 89052A   22052.94980027  .00000064  00000+0  00000+0 0  9992
2 20107  14.0494 345.9448 0034558 316.4121 229.8025  0.99399930118744
GORIZONT 19 [-]         
1 20263U 89081A   22052.94980027  .00000132  00000+0  00000+0 0  9993
2 20263  13.7820 345.1637 0000667 232.1721 312.8125  1.00251949 31537
GORIZONT 20 [-]         
1 20659U 90054A   22053.84837442 -.00000132  00000+0  00000+0 0  9997
2 20659  14.1969 347.9979 0005457 152.1198  34.6461  1.00322381115898
GORIZONT 21 [-]         
1 20923U 90094A   22054.52958793  .00000108  00000+0  00000+0 0  9996
2 20923  14.2005 348.7658 0002416 200.5189 356.7586  1.00343757114656
GORIZONT 22 [-]         
1 20953U 90102A   22053.71170641 -.00000367  00000+0  00000+0 0  9995
2 20953  14.1596 349.1353 0004260  17.4153 152.8739  1.00362845114570
GORIZONT 23 [-]         
1 21533U 91046A   22054.59475529 -.00000275  00000+0  00000+0 0  9996
2 21533  14.8832 353.2246 0005071 334.4732 198.1732  0.98911565 31117
GORIZONT 24 [-]         
1 21759U 91074A   22054.61894520 -.00000171  00000+0  00000+0 0  9991
2 21759  15.0210 355.0979 0015955 222.9626 345.8590  0.98444900109458
GORIZONT 25 [-]         
1 21922U 92017A   22054.25095362 -.00000266  00000+0  00000+0 0  9993
2 21922  14.5675 354.4742 0029681  73.6719 111.4231  0.99849400109213
GORIZONT 26 [-]         
1 22041U 92043A   22054.57722498 -.00000043  00000+0  00000+0 0  9990
2 22041  14.7202 356.4375 0028890 233.0400 328.7992  0.99244957107848
GORIZONT 27 [-]         
1 22245U 92082A   22054.58359272 -.00000277  00000+0  00000+0 0  9995
2 22245  14.6409 356.0884 0014131   5.7991 145.6277  1.00213384111340
GORIZONT 28 [-]         
1 22880U 93069A   22054.31889659 -.00000154  00000+0  00000+0 0  9998
2 22880  14.7448 359.9070 0033241 124.0919  60.7566  0.99649219103432
GORIZONT 29 [-]         
1 22907U 93072A   22053.86353737 -.00000265  00000+0  00000+0 0  9997
2 22907  14.6605 359.3932 0011926 346.1885 214.3134  1.00116663103390
GORIZONT 30 [-]         
1 23108U 94030A   22054.28645144 -.00000375  00000+0  00000+0 0  9991
2 23108  14.6673   0.3179 0000908  37.3288 332.9650  1.00360679101676
GORIZONT 31 [-]         
1 23775U 96005A   22054.41379112 -.00000339  00000+0  00000+0 0  9999
2 23775  14.5183   6.4563 0016864 196.6612 238.7626  0.99898867 95325
GORIZONT 32 [-]         
1 23880U 96034A   22054.25104084 -.00000292  00000+0  00000+0 0  9992
2 23880  14.4616   6.9840 0009827 353.0448 179.6004  1.00163965 94253
GORIZONT 33 [-]         
1 26372U 00029A   22054.45754948 -.00000246  00000+0  00000+0 0  9991
2 26372  13.0726  18.0226 0003902  52.5239 164.3370  1.00380874 79630
